{
"type": "FeatureCollection",
"name": "north-eastern-zone",
"crs": { "type": "Name", "properties": { "name": "urn:ogc:def:crs:ogc:1.3:crs84" } },
"features": [
{ "type": "Feature", "properties": { "name": "north-eastern-zone" }, "geometry": { "type": "MultiPolygon", "coordinates": [ [ [[ 88.00852, 27.20794 ], [ 88.00907, 27.21769 ], [ 88.0283, 27.2882 ], [ 88.05851, 27.34158 ], [ 88.03722, 27.36872 ], [ 88.02727, 27.49305 ], [ 88.15773, 27.81236 ], [ 88.12408, 27.96408 ], [ 88.64577, 28.22187 ], [ 88.92991, 28.05021 ], [ 88.92918, 27.32877 ], [ 88.91064, 27.26989 ], [ 88.82206, 27.22594 ], [ 88.7855, 27.15328 ], [ 88.78, 27.15478 ], [ 88.76301, 27.13156 ], [ 88.71082, 27.12362 ], [ 88.65108, 27.14898 ], [ 88.60474, 27.17586 ], [ 88.54208, 27.17662 ], [ 88.5498, 27.15326 ], [ 88.45462, 27.07846 ], [ 88.43041, 27.07197 ], [ 88.32064, 27.09688 ], [ 88.27721, 27.12224 ], [ 88.22536, 27.11063 ], [ 88.20408, 27.12133 ], [ 88.14674, 27.10162 ], [ 88.0707, 27.1282 ], [ 88.05164, 27.19968 ], [ 88.00852, 27.20794 ]] ], [ [[ 89.83343, 26.73701 ], [ 89.86336, 26.7404 ], [ 90.04326, 26.74316 ], [ 90.21767, 26.85716 ], [ 90.355, 26.90799 ], [ 90.42091, 26.90983 ], [ 90.54588, 26.82713 ], [ 90.72647, 26.78301 ], [ 91.03477, 26.80446 ], [ 91.10275, 26.8351 ], [ 91.2442, 26.81856 ], [ 91.34445, 26.79465 ], [ 91.40762, 26.85042 ], [ 91.50358, 26.79619 ], [ 91.62701, 26.8256 ], [ 91.72657, 26.82162 ], [ 91.85188, 26.9236 ], [ 91.89857, 26.9285 ], [ 92.10388, 26.89054 ], [ 92.11281, 26.8988 ], [ 92.09564, 26.98603 ], [ 92.03556, 27.05423 ], [ 92.01565, 27.1117 ], [ 92.0129, 27.18838 ], [ 91.99127, 27.42663 ], [ 91.74683, 27.44614 ], [ 91.63147, 27.47782 ], [ 91.53946, 27.63001 ], [ 91.558, 27.82147 ], [ 91.57036, 27.84818 ], [ 91.68228, 27.84636 ], [ 91.83403, 27.79535 ], [ 91.89651, 27.74188 ], [ 91.97479, 27.78867 ], [ 92.22198, 27.89796 ], [ 92.56599, 27.89432 ], [ 92.63947, 28.16282 ], [ 92.93747, 28.31043 ], [ 93.07068, 28.37086 ], [ 93.22998, 28.58452 ], [ 94.23523, 28.99493 ], [ 94.25308, 29.14617 ], [ 94.64584, 29.34507 ], [ 95.20615, 29.12817 ], [ 95.81451, 29.3738 ], [ 96.06583, 29.42883 ], [ 96.16882, 29.36542 ], [ 96.32812, 29.20012 ], [ 96.96121, 28.38174 ], [ 97.06558, 28.39744 ], [ 97.23312, 28.3346 ], [ 97.37869, 28.22092 ], [ 97.41989, 28.01501 ], [ 97.3883, 27.86215 ], [ 96.94199, 27.59715 ], [ 97.20978, 27.13615 ], [ 97.15759, 27.07013 ], [ 97.05322, 27.08603 ], [ 96.85684, 27.16792 ], [ 96.74048, 27.25755 ], [ 96.22787, 27.2412 ], [ 96.16007, 27.2412 ], [ 96.04111, 27.1667 ], [ 95.9642, 27.04934 ], [ 95.74928, 26.89023 ], [ 95.12924, 26.53448 ], [ 95.09697, 26.45213 ], [ 95.13954, 26.39003 ], [ 95.20752, 26.07344 ], [ 95.05783, 25.743 ], [ 94.86419, 25.48667 ], [ 94.69872, 25.44824 ], [ 94.59572, 25.21985 ], [ 94.75983, 25.14031 ], [ 94.75983, 25.00473 ], [ 94.73236, 24.91384 ], [ 94.617, 24.70754 ], [ 94.48654, 24.54213 ], [ 94.30956, 24.2407 ], [ 94.29686, 24.23069 ], [ 94.26613, 24.07844 ], [ 94.19815, 23.92413 ], [ 94.15009, 23.82116 ], [ 93.49777, 23.93104 ], [ 93.39752, 23.05194 ], [ 93.18466, 22.91919 ], [ 93.21144, 22.25796 ], [ 93.17093, 22.18295 ], [ 93.00613, 21.98699 ], [ 92.90726, 21.92712 ], [ 92.82692, 22.06019 ], [ 92.6944, 22.02009 ], [ 92.59689, 21.96788 ], [ 92.54471, 22.14289 ], [ 92.50763, 22.69766 ], [ 92.46849, 22.74136 ], [ 92.36069, 22.93184 ], [ 92.25082, 23.64578 ], [ 91.80176, 23.30569 ], [ 91.84639, 23.07973 ], [ 91.72966, 22.98242 ], [ 91.62117, 22.92045 ], [ 91.34308, 23.07594 ], [ 91.15494, 23.59545 ], [ 91.13228, 23.7093 ], [ 91.2236, 23.92037 ], [ 91.37329, 24.11292 ], [ 91.96586, 24.38838 ], [ 92.16087, 24.53588 ], [ 92.25014, 24.69382 ], [ 92.22198, 24.90263 ], [ 92.28996, 24.93999 ], [ 92.42248, 24.86962 ], [ 92.40944, 25.01717 ], [ 92.2213, 25.09182 ], [ 92.03796, 25.17139 ], [ 91.68503, 25.12042 ], [ 91.46049, 25.13161 ], [ 91.24695, 25.18817 ], [ 90.93384, 25.14901 ], [ 90.83359, 25.14093 ], [ 90.73093, 25.15305 ], [ 90.64716, 25.16983 ], [ 90.59189, 25.15896 ], [ 90.4858, 25.16145 ], [ 90.44357, 25.14311 ], [ 90.38349, 25.14933 ], [ 90.11364, 25.21923 ], [ 89.82731, 25.29313 ], [ 89.8098, 25.38374 ], [ 89.84379, 25.469 ], [ 89.84722, 25.53965 ], [ 89.86679, 25.5697 ], [ 89.87297, 25.63936 ], [ 89.82182, 25.7328 ], [ 89.81323, 25.81596 ], [ 89.82868, 25.87467 ], [ 89.87469, 25.93798 ], [ 89.81804, 25.9386 ], [ 89.828, 25.97255 ], [ 89.76757, 26.03612 ], [ 89.7456, 26.13294 ], [ 89.69685, 26.15138 ], [ 89.69685, 26.20874 ], [ 89.68929, 26.25185 ], [ 89.70474, 26.32111 ], [ 89.76654, 26.36849 ], [ 89.82765, 26.44107 ], [ 89.83057, 26.61063 ], [ 89.84053, 26.70973 ], [ 89.83343, 26.73701 ]] ] ] } }
]
}
